COSMOS 2433 (720)       
1 32275U 07052A   22190.32351082 -.00000034  00000+0  00000+0 0  9997
2 32275  66.0825   3.9442 0001082 171.0425 307.7293  2.13104178114432
COSMOS 2432 (719)       
1 32276U 07052B   22190.66766791 -.00000035  00000+0  00000+0 0  9993
2 32276  66.0943   4.0347 0008626 342.5089 348.5659  2.13103467114431
COSMOS 2434 (721)       
1 32393U 07065A   22190.42582601  .00000083  00000+0  00000+0 0  9999
2 32393  64.3797 240.6766 0001331 121.0902 325.8215  2.13103228113140
COSMOS 2436 (723)       
1 32395U 07065C   22190.64085543  .00000085  00000+0  00000+0 0  9990
2 32395  64.3890 240.7266 0014581 353.4521  34.2974  2.13103126113084
COSMOS 2456 (730)       
1 36111U 09070A   22190.33382795  .00000003  00000+0  00000+0 0  9993
2 36111  64.3580 120.3034 0005369 309.5574 232.0425  2.13099372 97807
COSMOS 2457 (733)       
1 36112U 09070B   22190.56222009  .00000001  00000+0  00000+0 0  9998
2 36112  64.3427 120.1708 0004107 183.9112 300.3671  2.13101559 97819
COSMOS 2461 (735)       
1 36401U 10007B   22189.68841252 -.00000033  00000+0  00000+0 0  9995
2 36401  65.9702   2.8010 0020595  13.7574 195.1909  2.13103737 96145
COSMOS 2460 (732)       
1 36402U 10007C   22190.19007638 -.00000034  00000+0  00000+0 0  9997
2 36402  65.9550   2.7336 0002706  84.4961  97.9372  2.13106405 96155
COSMOS 2464 (736)       
1 37139U 10041C   22191.48548832  .00000091  00000+0  00000+0 0  9994
2 37139  63.9791 239.7050 0027935   7.4671  30.4389  2.13100851 92242
COSMOS 2476 (744)       
1 37867U 11064A   22190.47134954  .00000004  00000+0  00000+0 0  9996
2 37867  64.6465 121.6635 0022301 240.1976 312.5982  2.13101902 83151
COSMOS 2477 (745)       
1 37868U 11064B   22189.19228249  .00000017  00000+0  00000+0 0  9999
2 37868  64.6545 121.7711 0019702 241.6006 228.0408  2.13101753 83088
COSMOS 2475 (743)       
1 37869U 11064C   22190.72018249  .00000002  00000+0  00000+0 0  9992
2 37869  64.6624 121.7286 0024380 258.1437 261.6884  2.13102104 83120
COSMOS 2485 (747)       
1 39155U 13019A   22190.33867358  .00000006  00000+0  00000+0 0  9998
2 39155  64.8104 122.1007 0022712 235.9376 259.4668  2.13102052 71622
COSMOS 2492 (754)       
1 39620U 14012A   22190.59850277 -.00000036  00000+0  00000+0 0  9993
2 39620  65.8424   2.3989 0011588 333.7245  35.4733  2.13103228 64582
COSMOS 2500 (755)       
1 40001U 14032A   22190.82809443 -.00000037  00000+0  00000+0 0  9996
2 40001  65.7807   2.2494 0005654 177.9907 225.9491  2.13102414 62807
COSMOS 2501 (702K)      
1 40315U 14075A   22190.59366219  .00000084  00000+0  00000+0 0  9995
2 40315  63.6880 240.3959 0019071 210.6317 181.5626  2.13101578 59209
COSMOS 2514 (751)       
1 41330U 16008A   22190.53113549 -.00000037  00000+0  00000+0 0  9990
2 41330  65.5809   1.9465 0009360 197.8880 162.1041  2.13102706 49965
COSMOS 2516 (753)       
1 41554U 16032A   22190.75932019  .00000085  00000+0  00000+0 0  9992
2 41554  63.9131 240.6725 0014849 216.1203 222.1124  2.13106578 47571
COSMOS 2522 (752)       
1 42939U 17055A   22190.51055097  .00000083  00000+0  00000+0 0  9990
2 42939  64.1468 241.0821 0009178 241.6878 222.1170  2.13101983 37325
COSMOS 2527 (756)       
1 43508U 18053A   22190.56815992  .00000004  00000+0  00000+0 0  9998
2 43508  64.9729 122.0979 0008840 239.5395 300.5656  2.13102535 31613
COSMOS 2529 (757)       
1 43687U 18086A   22190.61080344  .00000083  00000+0  00000+0 0  9990
2 43687  64.3610 241.4008 0010917 262.6051 233.6429  2.13102196 28632
COSMOS 2534 (758)       
1 44299U 19030A   22190.89576450  .00000085  00000+0  00000+0 0  9990
2 44299  64.4333 241.2774 0013234 282.4650 206.9607  2.13102125 24283
COSMOS 2544 (759)       
1 44850U 19088A   22190.55878060  .00000005  00000+0  16595+1 0  9990
2 44850  64.9589 121.9499 0013745 263.0931 313.2681  2.13102323 20040
COSMOS 2545 (760)       
1 45358U 20018A   22190.50400256 -.00000038  00000+0  00000+0 0  9992
2 45358  64.9172   2.5379 0006598 239.9610 143.8237  2.13102755 18003
COSMOS 2547 (705K)      
1 46805U 20075A   22190.28524598  .00000082  00000+0  00000+0 0  9992
2 46805  64.6588 240.7305 0008127 244.4616 184.3659  2.13103240 13240
COSMOS 2557 (706K)      
1 52984U 22075A   22189.55263997 -.00000035  00000+0  10000-3 0  9994
2 52984  64.8202   4.7771 0003356 270.0930 211.4938  2.12988563    20
